{"type": "FeatureCollection", "features": [{"type": "Feature", "geometry": {"type": "Point", "coordinates": [-79.77, -6.725]}, "properties": {"id": "vista-florida", "nombre": "Vista Florida", "ubicacion": "Picsi, Chiclayo", "departamento": "Lambayeque", "gradiente": "bosque", "registros": 23, "estado_memoria": "borrador"}}, {"type": "Feature", "geometry": {"type": "Point", "coordinates": [-80.69, -4.885]}, "properties": {"id": "el-chira", "nombre": "El Chira", "ubicacion": "Sullana", "departamento": "Piura", "gradiente": "bosque", "registros": 23, "estado_memoria": "pendiente"}}, {"type": "Feature", "geometry": {"type": "Point", "coordinates": [-80.48, -3.605]}, "properties": {"id": "los-cedros", "nombre": "Los Cedros", "ubicacion": "Corrales, Tumbes", "departamento": "Tumbes", "gradiente": "bosque", "registros": 21, "estado_memoria": "pendiente"}}, {"type": "Feature", "geometry": {"type": "Point", "coordinates": [-78.555, -5.64]}, "properties": {"id": "huarangopampa", "nombre": "Amazonas (Huarangopampa)", "ubicacion": "El Milagro, Utcubamba", "departamento": "Amazonas", "gradiente": "tropico", "registros": 22, "estado_memoria": "pendiente"}}, {"type": "Feature", "geometry": {"type": "Point", "coordinates": [-77.24, -11.52]}, "properties": {"id": "donoso", "nombre": "Donoso", "ubicacion": "Huaral", "departamento": "Lima", "gradiente": "costa", "registros": 24, "estado_memoria": "pendiente"}}, {"type": "Feature", "geometry": {"type": "Point", "coordinates": [-76.13, -13.42]}, "properties": {"id": "chincha", "nombre": "Chincha", "ubicacion": "Chincha", "departamento": "Ica", "gradiente": "costa", "registros": 19, "estado_memoria": "pendiente"}}, {"type": "Feature", "geometry": {"type": "Point", "coordinates": [-74.215, -13.165]}, "properties": {"id": "canaan", "nombre": "Canaán", "ubicacion": "Huamanga", "departamento": "Ayacucho", "gradiente": "andes", "registros": 25, "estado_memoria": "pendiente"}}]}