{"type": "FeatureCollection", "features": [{"type": "Feature", "geometry": {"type": "Polygon", "coordinates": [[[-79.7713568020384, -6.724640675530003], [-79.77098594281456, -6.724640675530003], [-79.77098594281456, -6.724191519942508], [-79.7713568020384, -6.724191519942508], [-79.7713568020384, -6.724640675530003]]]}, "properties": {"eea": "vista-florida", "codigo": "VF-BR-1", "tipo": "Parcela demostrativa", "especie": "Mulato II", "area_m2": 2050, "ensayo": "bloque-brachiarias"}}, {"type": "Feature", "geometry": {"type": "Polygon", "coordinates": [[[-79.77096785212072, -6.724640675530003], [-79.77059699289688, -6.724640675530003], [-79.77059699289688, -6.724191519942508], [-79.77096785212072, -6.724191519942508], [-79.77096785212072, -6.724640675530003]]]}, "properties": {"eea": "vista-florida", "codigo": "VF-BR-2", "tipo": "Parcela demostrativa", "especie": "Xaraés", "area_m2": 2050, "ensayo": "bloque-brachiarias"}}, {"type": "Feature", "geometry": {"type": "Polygon", "coordinates": [[[-79.77057890220304, -6.724640675530003], [-79.7702080429792, -6.724640675530003], [-79.7702080429792, -6.724191519942508], [-79.77057890220304, -6.724191519942508], [-79.77057890220304, -6.724640675530003]]]}, "properties": {"eea": "vista-florida", "codigo": "VF-BR-3", "tipo": "Parcela demostrativa", "especie": "Marandú", "area_m2": 2050, "ensayo": "bloque-brachiarias"}}, {"type": "Feature", "geometry": {"type": "Polygon", "coordinates": [[[-79.76981909306154, -6.725538986704994], [-79.76978291167386, -6.725538986704994], [-79.76978291167386, -6.725503054257994], [-79.76981909306154, -6.725503054257994], [-79.76981909306154, -6.725538986704994]]]}, "properties": {"eea": "vista-florida", "codigo": "VF-SSP-01", "tipo": "Ensayo", "especie": "Mango/Centrosema", "area_m2": 16, "ensayo": "ssp-mango-centrosema"}}, {"type": "Feature", "geometry": {"type": "Polygon", "coordinates": [[[-79.76977386632693, -6.725538986704994], [-79.76973768493924, -6.725538986704994], [-79.76973768493924, -6.725503054257994], [-79.76977386632693, -6.725503054257994], [-79.76977386632693, -6.725538986704994]]]}, "properties": {"eea": "vista-florida", "codigo": "VF-SSP-02", "tipo": "Ensayo", "especie": "Mango/Testigo", "area_m2": 16, "ensayo": "ssp-mango-centrosema"}}, {"type": "Feature", "geometry": {"type": "Polygon", "coordinates": [[[-79.76972863959232, -6.725538986704994], [-79.76969245820463, -6.725538986704994], [-79.76969245820463, -6.725503054257994], [-79.76972863959232, -6.725503054257994], [-79.76972863959232, -6.725538986704994]]]}, "properties": {"eea": "vista-florida", "codigo": "VF-SSP-03", "tipo": "Ensayo", "especie": "Centrosema monocultivo", "area_m2": 16, "ensayo": "ssp-mango-centrosema"}}, {"type": "Feature", "geometry": {"type": "Polygon", "coordinates": [[[-79.7696834128577, -6.725538986704994], [-79.76964723147002, -6.725538986704994], [-79.76964723147002, -6.725503054257994], [-79.7696834128577, -6.725503054257994], [-79.7696834128577, -6.725538986704994]]]}, "properties": {"eea": "vista-florida", "codigo": "VF-SSP-04", "tipo": "Ensayo", "especie": "Mango/Tara", "area_m2": 16, "ensayo": "ssp-mango-centrosema"}}, {"type": "Feature", "geometry": {"type": "Polygon", "coordinates": [[[-79.76981909306154, -6.725494071146245], [-79.76978291167386, -6.725494071146245], [-79.76978291167386, -6.725458138699245], [-79.76981909306154, -6.725458138699245], [-79.76981909306154, -6.725494071146245]]]}, "properties": {"eea": "vista-florida", "codigo": "VF-SSP-05", "tipo": "Ensayo", "especie": "Mango/Testigo", "area_m2": 16, "ensayo": "ssp-mango-centrosema"}}, {"type": "Feature", "geometry": {"type": "Polygon", "coordinates": [[[-79.76977386632693, -6.725494071146245], [-79.76973768493924, -6.725494071146245], [-79.76973768493924, -6.725458138699245], [-79.76977386632693, -6.725458138699245], [-79.76977386632693, -6.725494071146245]]]}, "properties": {"eea": "vista-florida", "codigo": "VF-SSP-06", "tipo": "Ensayo", "especie": "Centrosema monocultivo", "area_m2": 16, "ensayo": "ssp-mango-centrosema"}}, {"type": "Feature", "geometry": {"type": "Polygon", "coordinates": [[[-79.76972863959232, -6.725494071146245], [-79.76969245820463, -6.725494071146245], [-79.76969245820463, -6.725458138699245], [-79.76972863959232, -6.725458138699245], [-79.76972863959232, -6.725494071146245]]]}, "properties": {"eea": "vista-florida", "codigo": "VF-SSP-07", "tipo": "Ensayo", "especie": "Mango/Tara", "area_m2": 16, "ensayo": "ssp-mango-centrosema"}}, {"type": "Feature", "geometry": {"type": "Polygon", "coordinates": [[[-79.7696834128577, -6.725494071146245], [-79.76964723147002, -6.725494071146245], [-79.76964723147002, -6.725458138699245], [-79.7696834128577, -6.725458138699245], [-79.7696834128577, -6.725494071146245]]]}, "properties": {"eea": "vista-florida", "codigo": "VF-SSP-08", "tipo": "Ensayo", "especie": "Mango/Centrosema", "area_m2": 16, "ensayo": "ssp-mango-centrosema"}}, {"type": "Feature", "geometry": {"type": "Polygon", "coordinates": [[[-79.76981909306154, -6.725449155587495], [-79.76978291167386, -6.725449155587495], [-79.76978291167386, -6.725413223140495], [-79.76981909306154, -6.725413223140495], [-79.76981909306154, -6.725449155587495]]]}, "properties": {"eea": "vista-florida", "codigo": "VF-SSP-09", "tipo": "Ensayo", "especie": "Centrosema monocultivo", "area_m2": 16, "ensayo": "ssp-mango-centrosema"}}, {"type": "Feature", "geometry": {"type": "Polygon", "coordinates": [[[-79.76977386632693, -6.725449155587495], [-79.76973768493924, -6.725449155587495], [-79.76973768493924, -6.725413223140495], [-79.76977386632693, -6.725413223140495], [-79.76977386632693, -6.725449155587495]]]}, "properties": {"eea": "vista-florida", "codigo": "VF-SSP-10", "tipo": "Ensayo", "especie": "Mango/Tara", "area_m2": 16, "ensayo": "ssp-mango-centrosema"}}, {"type": "Feature", "geometry": {"type": "Polygon", "coordinates": [[[-79.76972863959232, -6.725449155587495], [-79.76969245820463, -6.725449155587495], [-79.76969245820463, -6.725413223140495], [-79.76972863959232, -6.725413223140495], [-79.76972863959232, -6.725449155587495]]]}, "properties": {"eea": "vista-florida", "codigo": "VF-SSP-11", "tipo": "Ensayo", "especie": "Mango/Centrosema", "area_m2": 16, "ensayo": "ssp-mango-centrosema"}}, {"type": "Feature", "geometry": {"type": "Polygon", "coordinates": [[[-79.7696834128577, -6.725449155587495], [-79.76964723147002, -6.725449155587495], [-79.76964723147002, -6.725413223140495], [-79.7696834128577, -6.725413223140495], [-79.7696834128577, -6.725449155587495]]]}, "properties": {"eea": "vista-florida", "codigo": "VF-SSP-12", "tipo": "Ensayo", "especie": "Mango/Testigo", "area_m2": 16, "ensayo": "ssp-mango-centrosema"}}, {"type": "Feature", "geometry": {"type": "Polygon", "coordinates": [[[-79.76981909306154, -6.7254042400287455], [-79.76978291167386, -6.7254042400287455], [-79.76978291167386, -6.725368307581745], [-79.76981909306154, -6.725368307581745], [-79.76981909306154, -6.7254042400287455]]]}, "properties": {"eea": "vista-florida", "codigo": "VF-SSP-13", "tipo": "Ensayo", "especie": "Mango/Tara", "area_m2": 16, "ensayo": "ssp-mango-centrosema"}}, {"type": "Feature", "geometry": {"type": "Polygon", "coordinates": [[[-79.76977386632693, -6.7254042400287455], [-79.76973768493924, -6.7254042400287455], [-79.76973768493924, -6.725368307581745], [-79.76977386632693, -6.725368307581745], [-79.76977386632693, -6.7254042400287455]]]}, "properties": {"eea": "vista-florida", "codigo": "VF-SSP-14", "tipo": "Ensayo", "especie": "Mango/Centrosema", "area_m2": 16, "ensayo": "ssp-mango-centrosema"}}, {"type": "Feature", "geometry": {"type": "Polygon", "coordinates": [[[-79.76972863959232, -6.7254042400287455], [-79.76969245820463, -6.7254042400287455], [-79.76969245820463, -6.725368307581745], [-79.76972863959232, -6.725368307581745], [-79.76972863959232, -6.7254042400287455]]]}, "properties": {"eea": "vista-florida", "codigo": "VF-SSP-15", "tipo": "Ensayo", "especie": "Mango/Testigo", "area_m2": 16, "ensayo": "ssp-mango-centrosema"}}, {"type": "Feature", "geometry": {"type": "Polygon", "coordinates": [[[-79.7696834128577, -6.7254042400287455], [-79.76964723147002, -6.7254042400287455], [-79.76964723147002, -6.725368307581745], [-79.7696834128577, -6.725368307581745], [-79.7696834128577, -6.7254042400287455]]]}, "properties": {"eea": "vista-florida", "codigo": "VF-SSP-16", "tipo": "Ensayo", "especie": "Centrosema monocultivo", "area_m2": 16, "ensayo": "ssp-mango-centrosema"}}, {"type": "Feature", "geometry": {"type": "Polygon", "coordinates": [[[-79.76981909306154, -6.725359324469996], [-79.76978291167386, -6.725359324469996], [-79.76978291167386, -6.725323392022996], [-79.76981909306154, -6.725323392022996], [-79.76981909306154, -6.725359324469996]]]}, "properties": {"eea": "vista-florida", "codigo": "VF-SSP-17", "tipo": "Ensayo", "especie": "Mango/Centrosema", "area_m2": 16, "ensayo": "ssp-mango-centrosema"}}, {"type": "Feature", "geometry": {"type": "Polygon", "coordinates": [[[-79.76977386632693, -6.725359324469996], [-79.76973768493924, -6.725359324469996], [-79.76973768493924, -6.725323392022996], [-79.76977386632693, -6.725323392022996], [-79.76977386632693, -6.725359324469996]]]}, "properties": {"eea": "vista-florida", "codigo": "VF-SSP-18", "tipo": "Ensayo", "especie": "Mango/Testigo", "area_m2": 16, "ensayo": "ssp-mango-centrosema"}}, {"type": "Feature", "geometry": {"type": "Polygon", "coordinates": [[[-79.76972863959232, -6.725359324469996], [-79.76969245820463, -6.725359324469996], [-79.76969245820463, -6.725323392022996], [-79.76972863959232, -6.725323392022996], [-79.76972863959232, -6.725359324469996]]]}, "properties": {"eea": "vista-florida", "codigo": "VF-SSP-19", "tipo": "Ensayo", "especie": "Centrosema monocultivo", "area_m2": 16, "ensayo": "ssp-mango-centrosema"}}, {"type": "Feature", "geometry": {"type": "Polygon", "coordinates": [[[-79.7696834128577, -6.725359324469996], [-79.76964723147002, -6.725359324469996], [-79.76964723147002, -6.725323392022996], [-79.7696834128577, -6.725323392022996], [-79.7696834128577, -6.725359324469996]]]}, "properties": {"eea": "vista-florida", "codigo": "VF-SSP-20", "tipo": "Ensayo", "especie": "Mango/Tara", "area_m2": 16, "ensayo": "ssp-mango-centrosema"}}, {"type": "Feature", "geometry": {"type": "Polygon", "coordinates": [[[-79.76981909306154, -6.725314408911246], [-79.76978291167386, -6.725314408911246], [-79.76978291167386, -6.725278476464246], [-79.76981909306154, -6.725278476464246], [-79.76981909306154, -6.725314408911246]]]}, "properties": {"eea": "vista-florida", "codigo": "VF-SSP-21", "tipo": "Ensayo", "especie": "Mango/Testigo", "area_m2": 16, "ensayo": "ssp-mango-centrosema"}}, {"type": "Feature", "geometry": {"type": "Polygon", "coordinates": [[[-79.76977386632693, -6.725314408911246], [-79.76973768493924, -6.725314408911246], [-79.76973768493924, -6.725278476464246], [-79.76977386632693, -6.725278476464246], [-79.76977386632693, -6.725314408911246]]]}, "properties": {"eea": "vista-florida", "codigo": "VF-SSP-22", "tipo": "Ensayo", "especie": "Centrosema monocultivo", "area_m2": 16, "ensayo": "ssp-mango-centrosema"}}, {"type": "Feature", "geometry": {"type": "Polygon", "coordinates": [[[-79.76972863959232, -6.725314408911246], [-79.76969245820463, -6.725314408911246], [-79.76969245820463, -6.725278476464246], [-79.76972863959232, -6.725278476464246], [-79.76972863959232, -6.725314408911246]]]}, "properties": {"eea": "vista-florida", "codigo": "VF-SSP-23", "tipo": "Ensayo", "especie": "Mango/Tara", "area_m2": 16, "ensayo": "ssp-mango-centrosema"}}, {"type": "Feature", "geometry": {"type": "Polygon", "coordinates": [[[-79.7696834128577, -6.725314408911246], [-79.76964723147002, -6.725314408911246], [-79.76964723147002, -6.725278476464246], [-79.7696834128577, -6.725278476464246], [-79.7696834128577, -6.725314408911246]]]}, "properties": {"eea": "vista-florida", "codigo": "VF-SSP-24", "tipo": "Ensayo", "especie": "Mango/Centrosema", "area_m2": 16, "ensayo": "ssp-mango-centrosema"}}, {"type": "Feature", "geometry": {"type": "Polygon", "coordinates": [[[-79.76981909306154, -6.725269493352497], [-79.76978291167386, -6.725269493352497], [-79.76978291167386, -6.7252335609054965], [-79.76981909306154, -6.7252335609054965], [-79.76981909306154, -6.725269493352497]]]}, "properties": {"eea": "vista-florida", "codigo": "VF-SSP-25", "tipo": "Ensayo", "especie": "Centrosema monocultivo", "area_m2": 16, "ensayo": "ssp-mango-centrosema"}}, {"type": "Feature", "geometry": {"type": "Polygon", "coordinates": [[[-79.76977386632693, -6.725269493352497], [-79.76973768493924, -6.725269493352497], [-79.76973768493924, -6.7252335609054965], [-79.76977386632693, -6.7252335609054965], [-79.76977386632693, -6.725269493352497]]]}, "properties": {"eea": "vista-florida", "codigo": "VF-SSP-26", "tipo": "Ensayo", "especie": "Mango/Tara", "area_m2": 16, "ensayo": "ssp-mango-centrosema"}}, {"type": "Feature", "geometry": {"type": "Polygon", "coordinates": [[[-79.76972863959232, -6.725269493352497], [-79.76969245820463, -6.725269493352497], [-79.76969245820463, -6.7252335609054965], [-79.76972863959232, -6.7252335609054965], [-79.76972863959232, -6.725269493352497]]]}, "properties": {"eea": "vista-florida", "codigo": "VF-SSP-27", "tipo": "Ensayo", "especie": "Mango/Centrosema", "area_m2": 16, "ensayo": "ssp-mango-centrosema"}}, {"type": "Feature", "geometry": {"type": "Polygon", "coordinates": [[[-79.7696834128577, -6.725269493352497], [-79.76964723147002, -6.725269493352497], [-79.76964723147002, -6.7252335609054965], [-79.7696834128577, -6.7252335609054965], [-79.7696834128577, -6.725269493352497]]]}, "properties": {"eea": "vista-florida", "codigo": "VF-SSP-28", "tipo": "Ensayo", "especie": "Mango/Testigo", "area_m2": 16, "ensayo": "ssp-mango-centrosema"}}, {"type": "Feature", "geometry": {"type": "Polygon", "coordinates": [[[-79.76981909306154, -6.725224577793748], [-79.76978291167386, -6.725224577793748], [-79.76978291167386, -6.725188645346748], [-79.76981909306154, -6.725188645346748], [-79.76981909306154, -6.725224577793748]]]}, "properties": {"eea": "vista-florida", "codigo": "VF-SSP-29", "tipo": "Ensayo", "especie": "Mango/Tara", "area_m2": 16, "ensayo": "ssp-mango-centrosema"}}, {"type": "Feature", "geometry": {"type": "Polygon", "coordinates": [[[-79.76977386632693, -6.725224577793748], [-79.76973768493924, -6.725224577793748], [-79.76973768493924, -6.725188645346748], [-79.76977386632693, -6.725188645346748], [-79.76977386632693, -6.725224577793748]]]}, "properties": {"eea": "vista-florida", "codigo": "VF-SSP-30", "tipo": "Ensayo", "especie": "Mango/Centrosema", "area_m2": 16, "ensayo": "ssp-mango-centrosema"}}, {"type": "Feature", "geometry": {"type": "Polygon", "coordinates": [[[-79.76972863959232, -6.725224577793748], [-79.76969245820463, -6.725224577793748], [-79.76969245820463, -6.725188645346748], [-79.76972863959232, -6.725188645346748], [-79.76972863959232, -6.725224577793748]]]}, "properties": {"eea": "vista-florida", "codigo": "VF-SSP-31", "tipo": "Ensayo", "especie": "Mango/Testigo", "area_m2": 16, "ensayo": "ssp-mango-centrosema"}}, {"type": "Feature", "geometry": {"type": "Polygon", "coordinates": [[[-79.7696834128577, -6.725224577793748], [-79.76964723147002, -6.725224577793748], [-79.76964723147002, -6.725188645346748], [-79.7696834128577, -6.725188645346748], [-79.7696834128577, -6.725224577793748]]]}, "properties": {"eea": "vista-florida", "codigo": "VF-SSP-32", "tipo": "Ensayo", "especie": "Centrosema monocultivo", "area_m2": 16, "ensayo": "ssp-mango-centrosema"}}, {"type": "Feature", "geometry": {"type": "Polygon", "coordinates": [[[-79.7713568020384, -6.725359324469996], [-79.77117589509994, -6.725359324469996], [-79.77117589509994, -6.725224577793747], [-79.7713568020384, -6.725224577793747], [-79.7713568020384, -6.725359324469996]]]}, "properties": {"eea": "vista-florida", "codigo": "VF-C22-1", "tipo": "Parcela demostrativa", "especie": "Cuba 22", "area_m2": 300, "ensayo": "cuba22-estres-hidrico"}}, {"type": "Feature", "geometry": {"type": "Polygon", "coordinates": [[[-79.7711578044061, -6.725359324469996], [-79.77097689746765, -6.725359324469996], [-79.77097689746765, -6.725224577793747], [-79.7711578044061, -6.725224577793747], [-79.7711578044061, -6.725359324469996]]]}, "properties": {"eea": "vista-florida", "codigo": "VF-C22-2", "tipo": "Parcela demostrativa", "especie": "Cuba 22", "area_m2": 300, "ensayo": "cuba22-estres-hidrico"}}, {"type": "Feature", "geometry": {"type": "Polygon", "coordinates": [[[-79.77095880677379, -6.725359324469996], [-79.77077789983534, -6.725359324469996], [-79.77077789983534, -6.725224577793747], [-79.77095880677379, -6.725224577793747], [-79.77095880677379, -6.725359324469996]]]}, "properties": {"eea": "vista-florida", "codigo": "VF-C22-3", "tipo": "Parcela demostrativa", "especie": "Cuba 22", "area_m2": 300, "ensayo": "cuba22-estres-hidrico"}}, {"type": "Feature", "geometry": {"type": "Polygon", "coordinates": [[[-79.7707598091415, -6.725359324469996], [-79.77057890220304, -6.725359324469996], [-79.77057890220304, -6.725224577793747], [-79.7707598091415, -6.725224577793747], [-79.7707598091415, -6.725359324469996]]]}, "properties": {"eea": "vista-florida", "codigo": "VF-C22-4", "tipo": "Parcela demostrativa", "especie": "Cuba 22", "area_m2": 300, "ensayo": "cuba22-estres-hidrico"}}, {"type": "Feature", "geometry": {"type": "Polygon", "coordinates": [[[-80.69054095164469, -4.885179662234998], [-80.69027047582235, -4.885179662234998], [-80.69027047582235, -4.884964067553001], [-80.69054095164469, -4.884964067553001], [-80.69054095164469, -4.885179662234998]]]}, "properties": {"eea": "el-chira", "codigo": "EC-01", "tipo": "Parcela demostrativa", "especie": "Cuba 22", "area_m2": 400, "ensayo": null}}, {"type": "Feature", "geometry": {"type": "Polygon", "coordinates": [[[-80.69023441237937, -4.885179662234998], [-80.68996393655702, -4.885179662234998], [-80.68996393655702, -4.884964067553001], [-80.69023441237937, -4.884964067553001], [-80.69023441237937, -4.885179662234998]]]}, "properties": {"eea": "el-chira", "codigo": "EC-02", "tipo": "Parcela demostrativa", "especie": "Mulato II", "area_m2": 400, "ensayo": null}}, {"type": "Feature", "geometry": {"type": "Polygon", "coordinates": [[[-80.68992787311404, -4.885179662234998], [-80.6896573972917, -4.885179662234998], [-80.6896573972917, -4.884964067553001], [-80.68992787311404, -4.884964067553001], [-80.68992787311404, -4.885179662234998]]]}, "properties": {"eea": "el-chira", "codigo": "EC-03", "tipo": "Parcela demostrativa", "especie": "Gliricidia sepium", "area_m2": 400, "ensayo": null}}, {"type": "Feature", "geometry": {"type": "Polygon", "coordinates": [[[-80.69054095164469, -4.8849281351060005], [-80.69027047582235, -4.8849281351060005], [-80.69027047582235, -4.884712540424003], [-80.69054095164469, -4.884712540424003], [-80.69054095164469, -4.8849281351060005]]]}, "properties": {"eea": "el-chira", "codigo": "EC-04", "tipo": "Parcela demostrativa", "especie": "Stylosanthes guianensis", "area_m2": 400, "ensayo": null}}, {"type": "Feature", "geometry": {"type": "Polygon", "coordinates": [[[-80.69023441237937, -4.8849281351060005], [-80.68996393655702, -4.8849281351060005], [-80.68996393655702, -4.884712540424003], [-80.69023441237937, -4.884712540424003], [-80.69023441237937, -4.8849281351060005]]]}, "properties": {"eea": "el-chira", "codigo": "EC-05", "tipo": "Parcela demostrativa", "especie": "Opuntia ficus-indica", "area_m2": 400, "ensayo": null}}, {"type": "Feature", "geometry": {"type": "Polygon", "coordinates": [[[-80.48054005534215, -3.605179662234998], [-80.48027002767108, -3.605179662234998], [-80.48027002767108, -3.6049640675530004], [-80.48054005534215, -3.6049640675530004], [-80.48054005534215, -3.605179662234998]]]}, "properties": {"eea": "los-cedros", "codigo": "LC-01", "tipo": "Parcela demostrativa", "especie": "Cuba 22", "area_m2": 400, "ensayo": null}}, {"type": "Feature", "geometry": {"type": "Polygon", "coordinates": [[[-80.4802340239816, -3.605179662234998], [-80.47996399631053, -3.605179662234998], [-80.47996399631053, -3.6049640675530004], [-80.4802340239816, -3.6049640675530004], [-80.4802340239816, -3.605179662234998]]]}, "properties": {"eea": "los-cedros", "codigo": "LC-02", "tipo": "Parcela demostrativa", "especie": "Mulato II", "area_m2": 400, "ensayo": null}}, {"type": "Feature", "geometry": {"type": "Polygon", "coordinates": [[[-80.47992799262106, -3.605179662234998], [-80.47965796495, -3.605179662234998], [-80.47965796495, -3.6049640675530004], [-80.47992799262106, -3.6049640675530004], [-80.47992799262106, -3.605179662234998]]]}, "properties": {"eea": "los-cedros", "codigo": "LC-03", "tipo": "Parcela demostrativa", "especie": "Gliricidia sepium", "area_m2": 400, "ensayo": null}}, {"type": "Feature", "geometry": {"type": "Polygon", "coordinates": [[[-80.48054005534215, -3.6049281351060007], [-80.48027002767108, -3.6049281351060007], [-80.48027002767108, -3.604712540424003], [-80.48054005534215, -3.604712540424003], [-80.48054005534215, -3.6049281351060007]]]}, "properties": {"eea": "los-cedros", "codigo": "LC-04", "tipo": "Parcela demostrativa", "especie": "Stylosanthes guianensis", "area_m2": 400, "ensayo": null}}, {"type": "Feature", "geometry": {"type": "Polygon", "coordinates": [[[-80.4802340239816, -3.6049281351060007], [-80.47996399631053, -3.6049281351060007], [-80.47996399631053, -3.604712540424003], [-80.4802340239816, -3.604712540424003], [-80.4802340239816, -3.6049281351060007]]]}, "properties": {"eea": "los-cedros", "codigo": "LC-05", "tipo": "Parcela demostrativa", "especie": "Opuntia ficus-indica", "area_m2": 400, "ensayo": null}}, {"type": "Feature", "geometry": {"type": "Polygon", "coordinates": [[[-78.55554160861512, -5.640179662234998], [-78.55527080430755, -5.640179662234998], [-78.55527080430755, -5.6399640675530005], [-78.55554160861512, -5.6399640675530005], [-78.55554160861512, -5.640179662234998]]]}, "properties": {"eea": "huarangopampa", "codigo": "H-01", "tipo": "Parcela demostrativa", "especie": "Xaraés", "area_m2": 400, "ensayo": null}}, {"type": "Feature", "geometry": {"type": "Polygon", "coordinates": [[[-78.55523469706655, -5.640179662234998], [-78.55496389275899, -5.640179662234998], [-78.55496389275899, -5.6399640675530005], [-78.55523469706655, -5.6399640675530005], [-78.55523469706655, -5.640179662234998]]]}, "properties": {"eea": "huarangopampa", "codigo": "H-02", "tipo": "Parcela demostrativa", "especie": "Centrosema macrocarpum", "area_m2": 400, "ensayo": null}}, {"type": "Feature", "geometry": {"type": "Polygon", "coordinates": [[[-78.55492778551799, -5.640179662234998], [-78.55465698121043, -5.640179662234998], [-78.55465698121043, -5.6399640675530005], [-78.55492778551799, -5.6399640675530005], [-78.55492778551799, -5.640179662234998]]]}, "properties": {"eea": "huarangopampa", "codigo": "H-03", "tipo": "Parcela demostrativa", "especie": "Tithonia diversifolia", "area_m2": 400, "ensayo": null}}, {"type": "Feature", "geometry": {"type": "Polygon", "coordinates": [[[-78.55554160861512, -5.639928135106], [-78.55527080430755, -5.639928135106], [-78.55527080430755, -5.639712540424003], [-78.55554160861512, -5.639712540424003], [-78.55554160861512, -5.639928135106]]]}, "properties": {"eea": "huarangopampa", "codigo": "H-04", "tipo": "Parcela demostrativa", "especie": "BRS Kurumi", "area_m2": 400, "ensayo": null}}, {"type": "Feature", "geometry": {"type": "Polygon", "coordinates": [[[-78.55523469706655, -5.639928135106], [-78.55496389275899, -5.639928135106], [-78.55496389275899, -5.639712540424003], [-78.55523469706655, -5.639712540424003], [-78.55523469706655, -5.639928135106]]]}, "properties": {"eea": "huarangopampa", "codigo": "H-05", "tipo": "Parcela demostrativa", "especie": "Gliricidia sepium", "area_m2": 400, "ensayo": null}}, {"type": "Feature", "geometry": {"type": "Polygon", "coordinates": [[[-77.24055006779184, -11.520179662234998], [-77.24027503389593, -11.520179662234998], [-77.24027503389593, -11.519964067553], [-77.24055006779184, -11.519964067553], [-77.24055006779184, -11.520179662234998]]]}, "properties": {"eea": "donoso", "codigo": "D-01", "tipo": "Parcela demostrativa", "especie": "Medicago sativa", "area_m2": 400, "ensayo": null}}, {"type": "Feature", "geometry": {"type": "Polygon", "coordinates": [[[-77.24023836270979, -11.520179662234998], [-77.23996332881387, -11.520179662234998], [-77.23996332881387, -11.519964067553], [-77.24023836270979, -11.519964067553], [-77.24023836270979, -11.520179662234998]]]}, "properties": {"eea": "donoso", "codigo": "D-02", "tipo": "Parcela demostrativa", "especie": "Maralfalfa", "area_m2": 400, "ensayo": null}}, {"type": "Feature", "geometry": {"type": "Polygon", "coordinates": [[[-77.23992665762775, -11.520179662234998], [-77.23965162373183, -11.520179662234998], [-77.23965162373183, -11.519964067553], [-77.23992665762775, -11.519964067553], [-77.23992665762775, -11.520179662234998]]]}, "properties": {"eea": "donoso", "codigo": "D-03", "tipo": "Parcela demostrativa", "especie": "Opuntia ficus-indica", "area_m2": 400, "ensayo": null}}, {"type": "Feature", "geometry": {"type": "Polygon", "coordinates": [[[-77.24055006779184, -11.519928135106], [-77.24027503389593, -11.519928135106], [-77.24027503389593, -11.519712540424], [-77.24055006779184, -11.519712540424], [-77.24055006779184, -11.519928135106]]]}, "properties": {"eea": "donoso", "codigo": "D-04", "tipo": "Parcela demostrativa", "especie": "Cuba 22", "area_m2": 400, "ensayo": null}}, {"type": "Feature", "geometry": {"type": "Polygon", "coordinates": [[[-77.24023836270979, -11.519928135106], [-77.23996332881387, -11.519928135106], [-77.23996332881387, -11.519712540424], [-77.24023836270979, -11.519712540424], [-77.24023836270979, -11.519928135106]]]}, "properties": {"eea": "donoso", "codigo": "D-05", "tipo": "Parcela demostrativa", "especie": "Morus alba", "area_m2": 400, "ensayo": null}}, {"type": "Feature", "geometry": {"type": "Polygon", "coordinates": [[[-76.13055411690951, -13.420179662234998], [-76.13027705845475, -13.420179662234998], [-76.13027705845475, -13.419964067553], [-76.13055411690951, -13.419964067553], [-76.13055411690951, -13.420179662234998]]]}, "properties": {"eea": "chincha", "codigo": "C-01", "tipo": "Parcela demostrativa", "especie": "Medicago sativa", "area_m2": 400, "ensayo": null}}, {"type": "Feature", "geometry": {"type": "Polygon", "coordinates": [[[-76.13024011732745, -13.420179662234998], [-76.12996305887269, -13.420179662234998], [-76.12996305887269, -13.419964067553], [-76.13024011732745, -13.419964067553], [-76.13024011732745, -13.420179662234998]]]}, "properties": {"eea": "chincha", "codigo": "C-02", "tipo": "Parcela demostrativa", "especie": "Maralfalfa", "area_m2": 400, "ensayo": null}}, {"type": "Feature", "geometry": {"type": "Polygon", "coordinates": [[[-76.1299261177454, -13.420179662234998], [-76.12964905929064, -13.420179662234998], [-76.12964905929064, -13.419964067553], [-76.1299261177454, -13.419964067553], [-76.1299261177454, -13.420179662234998]]]}, "properties": {"eea": "chincha", "codigo": "C-03", "tipo": "Parcela demostrativa", "especie": "Opuntia ficus-indica", "area_m2": 400, "ensayo": null}}, {"type": "Feature", "geometry": {"type": "Polygon", "coordinates": [[[-76.13055411690951, -13.419928135106], [-76.13027705845475, -13.419928135106], [-76.13027705845475, -13.419712540424001], [-76.13055411690951, -13.419712540424001], [-76.13055411690951, -13.419928135106]]]}, "properties": {"eea": "chincha", "codigo": "C-04", "tipo": "Parcela demostrativa", "especie": "Cuba 22", "area_m2": 400, "ensayo": null}}, {"type": "Feature", "geometry": {"type": "Polygon", "coordinates": [[[-76.13024011732745, -13.419928135106], [-76.12996305887269, -13.419928135106], [-76.12996305887269, -13.419712540424001], [-76.13024011732745, -13.419712540424001], [-76.13024011732745, -13.419928135106]]]}, "properties": {"eea": "chincha", "codigo": "C-05", "tipo": "Parcela demostrativa", "especie": "Morus alba", "area_m2": 400, "ensayo": null}}, {"type": "Feature", "geometry": {"type": "Polygon", "coordinates": [[[-74.21555353458311, -13.165179662234998], [-74.21527676729156, -13.165179662234998], [-74.21527676729156, -13.164964067552999], [-74.21555353458311, -13.164964067552999], [-74.21555353458311, -13.165179662234998]]]}, "properties": {"eea": "canaan", "codigo": "C-01", "tipo": "Parcela demostrativa", "especie": "Medicago sativa", "area_m2": 400, "ensayo": null}}, {"type": "Feature", "geometry": {"type": "Polygon", "coordinates": [[[-74.21523986498602, -13.165179662234998], [-74.21496309769446, -13.165179662234998], [-74.21496309769446, -13.164964067552999], [-74.21523986498602, -13.164964067552999], [-74.21523986498602, -13.165179662234998]]]}, "properties": {"eea": "canaan", "codigo": "C-02", "tipo": "Parcela demostrativa", "especie": "Maralfalfa", "area_m2": 400, "ensayo": null}}, {"type": "Feature", "geometry": {"type": "Polygon", "coordinates": [[[-74.21492619538893, -13.165179662234998], [-74.21464942809737, -13.165179662234998], [-74.21464942809737, -13.164964067552999], [-74.21492619538893, -13.164964067552999], [-74.21492619538893, -13.165179662234998]]]}, "properties": {"eea": "canaan", "codigo": "C-03", "tipo": "Parcela demostrativa", "especie": "Morus alba", "area_m2": 400, "ensayo": null}}, {"type": "Feature", "geometry": {"type": "Polygon", "coordinates": [[[-74.21555353458311, -13.164928135105999], [-74.21527676729156, -13.164928135105999], [-74.21527676729156, -13.164712540424], [-74.21555353458311, -13.164712540424], [-74.21555353458311, -13.164928135105999]]]}, "properties": {"eea": "canaan", "codigo": "C-04", "tipo": "Parcela demostrativa", "especie": "Tithonia diversifolia", "area_m2": 400, "ensayo": null}}, {"type": "Feature", "geometry": {"type": "Polygon", "coordinates": [[[-74.21523986498602, -13.164928135105999], [-74.21496309769446, -13.164928135105999], [-74.21496309769446, -13.164712540424], [-74.21523986498602, -13.164712540424], [-74.21523986498602, -13.164928135105999]]]}, "properties": {"eea": "canaan", "codigo": "C-05", "tipo": "Parcela demostrativa", "especie": "Cuba 22", "area_m2": 400, "ensayo": null}}]}